CCSDS_OMM_VERS = 2.0
CREATION_DATE  = 
ORIGINATOR     = 

OBJECT_NAME    = ATLAS CENTAUR R/B
OBJECT_ID      = 1972-065B
CENTER_NAME    = EARTH
REF_FRAME      = TEME
TIME_SYSTEM    = UTC
MEAN_ELEMENT_THEORY = SGP/SGP4

EPOCH          = 2025-11-18T20:54:26.309376
MEAN_MOTION    = 14.77323077
ECCENTRICITY   = .00335724
INCLINATION    = 35.0012
RA_OF_ASC_NODE = 235.0072
ARG_OF_PERICENTER = 159.4676
MEAN_ANOMALY   = 200.7380

EPHEMERIS_TYPE = 0
CLASSIFICATION_TYPE = U
NORAD_CAT_ID   = 6155
ELEMENT_SET_NO = 999
REV_AT_EPOCH   = 82486
BSTAR          = .22403831E-3
MEAN_MOTION_DOT = .1609E-4
MEAN_MOTION_DDOT = 0

CCSDS_OMM_VERS = 2.0
CREATION_DATE  = 
ORIGINATOR     = 

OBJECT_NAME    = SL-8 R/B
OBJECT_ID      = 1975-112B
CENTER_NAME    = EARTH
REF_FRAME      = TEME
TIME_SYSTEM    = UTC
MEAN_ELEMENT_THEORY = SGP/SGP4

EPOCH          = 2025-11-18T16:36:59.579136
MEAN_MOTION    = 14.38123998
ECCENTRICITY   = .00159782
INCLINATION    = 74.0607
RA_OF_ASC_NODE = 223.0871
ARG_OF_PERICENTER = 337.7034
MEAN_ANOMALY   = 22.3423

EPHEMERIS_TYPE = 0
CLASSIFICATION_TYPE = U
NORAD_CAT_ID   = 8459
ELEMENT_SET_NO = 999
REV_AT_EPOCH   = 61591
BSTAR          = .13290969E-3
MEAN_MOTION_DOT = .377E-5
MEAN_MOTION_DDOT = 0

CCSDS_OMM_VERS = 2.0
CREATION_DATE  = 
ORIGINATOR     = 

OBJECT_NAME    = SL-3 R/B
OBJECT_ID      = 1977-057B
CENTER_NAME    = EARTH
REF_FRAME      = TEME
TIME_SYSTEM    = UTC
MEAN_ELEMENT_THEORY = SGP/SGP4

EPOCH          = 2025-11-18T22:46:11.960256
MEAN_MOTION    = 15.42194902
ECCENTRICITY   = .00070968
INCLINATION    = 97.5674
RA_OF_ASC_NODE = 125.3658
ARG_OF_PERICENTER = 331.9052
MEAN_ANOMALY   = 28.1811

EPHEMERIS_TYPE = 0
CLASSIFICATION_TYPE = U
NORAD_CAT_ID   = 10114
ELEMENT_SET_NO = 999
REV_AT_EPOCH   = 65124
BSTAR          = .293016E-3
MEAN_MOTION_DOT = .12496E-3
MEAN_MOTION_DDOT = 0

CCSDS_OMM_VERS = 2.0
CREATION_DATE  = 
ORIGINATOR     = 

OBJECT_NAME    = SEASAT 1
OBJECT_ID      = 1978-064A
CENTER_NAME    = EARTH
REF_FRAME      = TEME
TIME_SYSTEM    = UTC
MEAN_ELEMENT_THEORY = SGP/SGP4

EPOCH          = 2025-11-18T19:34:54.416640
MEAN_MOTION    = 14.46023199
ECCENTRICITY   = .00022364
INCLINATION    = 108.0075
RA_OF_ASC_NODE = 252.8489
ARG_OF_PERICENTER = 253.6655
MEAN_ANOMALY   = 106.4244

EPHEMERIS_TYPE = 0
CLASSIFICATION_TYPE = U
NORAD_CAT_ID   = 10967
ELEMENT_SET_NO = 999
REV_AT_EPOCH   = 49048
BSTAR          = .2008444E-3
MEAN_MOTION_DOT = .58E-5
MEAN_MOTION_DDOT = 0

CCSDS_OMM_VERS = 2.0
CREATION_DATE  = 
ORIGINATOR     = 

OBJECT_NAME    = SL-14 R/B
OBJECT_ID      = 1979-011B
CENTER_NAME    = EARTH
REF_FRAME      = TEME
TIME_SYSTEM    = UTC
MEAN_ELEMENT_THEORY = SGP/SGP4

EPOCH          = 2025-11-18T21:48:24.574464
MEAN_MOTION    = 14.91729771
ECCENTRICITY   = .00176188
INCLINATION    = 82.5255
RA_OF_ASC_NODE = 201.6426
ARG_OF_PERICENTER = 69.3545
MEAN_ANOMALY   = 290.9562

EPHEMERIS_TYPE = 0
CLASSIFICATION_TYPE = U
NORAD_CAT_ID   = 11267
ELEMENT_SET_NO = 999
REV_AT_EPOCH   = 51226
BSTAR          = .74046845E-4
MEAN_MOTION_DOT = .773E-5
MEAN_MOTION_DDOT = 0

CCSDS_OMM_VERS = 2.0
CREATION_DATE  = 
ORIGINATOR     = 

OBJECT_NAME    = SL-8 R/B
OBJECT_ID      = 1979-089B
CENTER_NAME    = EARTH
REF_FRAME      = TEME
TIME_SYSTEM    = UTC
MEAN_ELEMENT_THEORY = SGP/SGP4

EPOCH          = 2025-11-18T21:44:35.786400
MEAN_MOTION    = 14.42260434
ECCENTRICITY   = .00148137
INCLINATION    = 74.0679
RA_OF_ASC_NODE = 296.0908
ARG_OF_PERICENTER = 140.3148
MEAN_ANOMALY   = 219.9096

EPHEMERIS_TYPE = 0
CLASSIFICATION_TYPE = U
NORAD_CAT_ID   = 11574
ELEMENT_SET_NO = 999
REV_AT_EPOCH   = 42013
BSTAR          = .12279192E-3
MEAN_MOTION_DOT = .379E-5
MEAN_MOTION_DDOT = 0

CCSDS_OMM_VERS = 2.0
CREATION_DATE  = 
ORIGINATOR     = 

OBJECT_NAME    = SL-14 R/B
OBJECT_ID      = 1980-005B
CENTER_NAME    = EARTH
REF_FRAME      = TEME
TIME_SYSTEM    = UTC
MEAN_ELEMENT_THEORY = SGP/SGP4

EPOCH          = 2025-11-18T17:09:06.144480
MEAN_MOTION    = 14.90748586
ECCENTRICITY   = .00160643
INCLINATION    = 82.5162
RA_OF_ASC_NODE = 52.4799
ARG_OF_PERICENTER = 168.4015
MEAN_ANOMALY   = 191.7577

EPHEMERIS_TYPE = 0
CLASSIFICATION_TYPE = U
NORAD_CAT_ID   = 11672
ELEMENT_SET_NO = 999
REV_AT_EPOCH   = 45995
BSTAR          = .94491083E-4
MEAN_MOTION_DOT = .955E-5
MEAN_MOTION_DDOT = 0

CCSDS_OMM_VERS = 2.0
CREATION_DATE  = 
ORIGINATOR     = 

OBJECT_NAME    = SL-8 R/B
OBJECT_ID      = 1981-003B
CENTER_NAME    = EARTH
REF_FRAME      = TEME
TIME_SYSTEM    = UTC
MEAN_ELEMENT_THEORY = SGP/SGP4

EPOCH          = 2025-11-18T15:00:38.562912
MEAN_MOTION    = 15.05879040
ECCENTRICITY   = .02820151
INCLINATION    = 82.9343
RA_OF_ASC_NODE = 32.3782
ARG_OF_PERICENTER = 203.7031
MEAN_ANOMALY   = 155.1001

EPHEMERIS_TYPE = 0
CLASSIFICATION_TYPE = U
NORAD_CAT_ID   = 12139
ELEMENT_SET_NO = 999
REV_AT_EPOCH   = 29793
BSTAR          = .70700421E-3
MEAN_MOTION_DOT = .25926E-3
MEAN_MOTION_DDOT = 0

CCSDS_OMM_VERS = 2.0
CREATION_DATE  = 
ORIGINATOR     = 

OBJECT_NAME    = SL-3 R/B
OBJECT_ID      = 1981-046B
CENTER_NAME    = EARTH
REF_FRAME      = TEME
TIME_SYSTEM    = UTC
MEAN_ELEMENT_THEORY = SGP/SGP4

EPOCH          = 2025-11-18T21:38:31.497216
MEAN_MOTION    = 15.38930113
ECCENTRICITY   = .00204409
INCLINATION    = 81.2343
RA_OF_ASC_NODE = 62.4349
ARG_OF_PERICENTER = 46.5591
MEAN_ANOMALY   = 313.7347

EPHEMERIS_TYPE = 0
CLASSIFICATION_TYPE = U
NORAD_CAT_ID   = 12465
ELEMENT_SET_NO = 999
REV_AT_EPOCH   = 42137
BSTAR          = .3083662E-3
MEAN_MOTION_DOT = .11998E-3
MEAN_MOTION_DDOT = 0

CCSDS_OMM_VERS = 2.0
CREATION_DATE  = 
ORIGINATOR     = 

OBJECT_NAME    = METEOR PRIRODA
OBJECT_ID      = 1981-065A
CENTER_NAME    = EARTH
REF_FRAME      = TEME
TIME_SYSTEM    = UTC
MEAN_ELEMENT_THEORY = SGP/SGP4

EPOCH          = 2025-11-18T22:36:05.121216
MEAN_MOTION    = 16.32356273
ECCENTRICITY   = .0006546
INCLINATION    = 97.4569
RA_OF_ASC_NODE = 28.5318
ARG_OF_PERICENTER = 261.5511
MEAN_ANOMALY   = 98.5042

EPHEMERIS_TYPE = 0
CLASSIFICATION_TYPE = U
NORAD_CAT_ID   = 12585
ELEMENT_SET_NO = 999
REV_AT_EPOCH   = 42699
BSTAR          = .56256405E-3
MEAN_MOTION_DOT = .3067315E-1
MEAN_MOTION_DDOT = .2539478E-5

CCSDS_OMM_VERS = 2.0
CREATION_DATE  = 
ORIGINATOR     = 

OBJECT_NAME    = SL-3 R/B
OBJECT_ID      = 1981-103B
CENTER_NAME    = EARTH
REF_FRAME      = TEME
TIME_SYSTEM    = UTC
MEAN_ELEMENT_THEORY = SGP/SGP4

EPOCH          = 2025-11-18T21:29:48.943104
MEAN_MOTION    = 15.19823521
ECCENTRICITY   = .00118513
INCLINATION    = 81.1588
RA_OF_ASC_NODE = 343.2733
ARG_OF_PERICENTER = 307.0676
MEAN_ANOMALY   = 52.9470

EPHEMERIS_TYPE = 0
CLASSIFICATION_TYPE = U
NORAD_CAT_ID   = 12904
ELEMENT_SET_NO = 999
REV_AT_EPOCH   = 95639
BSTAR          = .3181649E-3
MEAN_MOTION_DOT = .6853E-4
MEAN_MOTION_DDOT = 0

CCSDS_OMM_VERS = 2.0
CREATION_DATE  = 
ORIGINATOR     = 

OBJECT_NAME    = SL-3 R/B
OBJECT_ID      = 1982-013B
CENTER_NAME    = EARTH
REF_FRAME      = TEME
TIME_SYSTEM    = UTC
MEAN_ELEMENT_THEORY = SGP/SGP4

EPOCH          = 2025-11-18T23:00:55.599840
MEAN_MOTION    = 15.20787497
ECCENTRICITY   = .00224735
INCLINATION    = 81.1731
RA_OF_ASC_NODE = 290.4401
ARG_OF_PERICENTER = 188.8971
MEAN_ANOMALY   = 171.1866

EPHEMERIS_TYPE = 0
CLASSIFICATION_TYPE = U
NORAD_CAT_ID   = 13068
ELEMENT_SET_NO = 999
REV_AT_EPOCH   = 38751
BSTAR          = .19391331E-3
MEAN_MOTION_DOT = .4326E-4
MEAN_MOTION_DDOT = 0

