ATLAS CENTAUR R/B       
1 06155U 72065B   25322.87113784  .00001609  00000+0  22404-3 0  9990
2 06155  35.0012 235.0072 0033572 159.4676 200.7380 14.77323077824866
SL-8 R/B                
1 08459U 75112B   25322.69235624  .00000377  00000+0  13291-3 0  9998
2 08459  74.0607 223.0871 0015978 337.7034  22.3423 14.38123998615918
SL-3 R/B                
1 10114U 77057B   25322.94874954  .00012496  00000+0  29302-3 0  9997
2 10114  97.5674 125.3658 0007096 331.9052  28.1811 15.42194902651248
SEASAT 1                
1 10967U 78064A   25322.81590760  .00000580  00000+0  20084-3 0  9997
2 10967 108.0075 252.8489 0002236 253.6655 106.4244 14.46023199490484
SL-14 R/B               
1 11267U 79011B   25322.90861776  .00000773  00000+0  74047-4 0  9995
2 11267  82.5255 201.6426 0017618  69.3545 290.9562 14.91729771512269
SL-8 R/B                
1 11574U 79089B   25322.90596975  .00000379  00000+0  12279-3 0  9997
2 11574  74.0679 296.0908 0014813 140.3148 219.9096 14.42260434420131
SL-14 R/B               
1 11672U 80005B   25322.71465445  .00000955  00000+0  94491-4 0  9999
2 11672  82.5162  52.4799 0016064 168.4015 191.7577 14.90748586459952
SL-8 R/B                
1 12139U 81003B   25322.62544633  .00025926  00000+0  70700-3 0  9995
2 12139  82.9343  32.3782 0282015 203.7031 155.1001 15.05879040297938
SL-3 R/B                
1 12465U 81046B   25322.90175344  .00011998  00000+0  30837-3 0  9995
2 12465  81.2343  62.4349 0020440  46.5591 313.7347 15.38930113421378
METEOR PRIRODA          
1 12585U 81065A   25322.94172594  .03067315  25395-5  56256-3 0  9997
2 12585  97.4569  28.5318 0006546 261.5511  98.5042 16.32356273426998
SL-3 R/B                
1 12904U 81103B   25322.89570536  .00006853  00000+0  31816-3 0  9999
2 12904  81.1588 343.2733 0011851 307.0676  52.9470 15.19823521956395
SL-3 R/B                
1 13068U 82013B   25322.95897685  .00004326  00000+0  19391-3 0  9993
2 13068  81.1731 290.4401 0022473 188.8971 171.1866 15.20787497387515
